NORAD_CAT_ID,OBJECT_NAME,OBJECT_TYPE,EPOCH,MEAN_MOTION,ECCENTRICITY,INCLINATION,RA_OF_ASC_NODE,ARG_OF_PERICENTER,MEAN_ANOMALY,BSTAR,MEAN_MOTION_DOT,MEAN_MOTION_DDOT,TLE_LINE0,TLE_LINE1,TLE_LINE2,SEMIMAJOR_AXIS,PERIOD,APOGEE,PERIGEE,DECAYED
51734.0,STARLINK-3450,PAYLOAD,2023-01-15 12:27:52,15.08848197,0.0002496,53.2149,77.9578,39.9419,320.1756,0.00083715,0.00013063,0.0,0 STARLINK-3450,1 51734U 22016W   23015.51936265  .00013063  00000-0  83715-3 0  9999,2 51734  53.2149  77.9578 0002496  39.9419 320.1756 15.08848197 51185,6917.855,95.437,541.447,537.994,0.0
51734.0,STARLINK-3450,PAYLOAD,2023-01-16 12:18:39,15.08884705,0.0002287,53.216,73.497,40.7472,319.3691,0.0019239,0.00030502,0.0,0 STARLINK-3450,1 51734U 22016W   23016.51295478  .00030502  00000-0  19239-2 0  9990,2 51734  53.2160  73.4970 0002287  40.7472 319.3691 15.08884705 50229,6917.744000000001,95.435,541.191,538.0269999999999,0.0
51734.0,STARLINK-3450,PAYLOAD,2023-01-16 20:15:35,15.08839404,0.0002136,53.2163,72.0083,47.7713,312.346,-0.00019458,-3.384e-05,0.0,0 STARLINK-3450,1 51734U 22016W   23016.84415855 -.00003384  00000-0 -19458-3 0  9993,2 51734  53.2163  72.0083 0002136  47.7713 312.3460 15.08839404 51381,6917.882,95.438,541.225,538.27,0.0
51734.0,STARLINK-3450,PAYLOAD,2023-01-17 05:47:55,15.08802043,0.0001851,53.2152,70.2262,58.6272,301.4901,0.00062576,9.675e-05,0.0,0 STARLINK-3450,1 51734U 22016W   23017.24161331  .00009675  00000-0  62576-3 0  9991,2 51734  53.2152  70.2262 0001851  58.6272 301.4901 15.08802043 51447,6917.996,95.44,541.1419999999999,538.581,0.0
51734.0,STARLINK-3450,PAYLOAD,2023-01-17 10:34:05,15.08803655,0.0001634,53.2153,69.3343,57.1388,302.9761,0.0012161,0.0001909999999999,0.0,0 STARLINK-3450,1 51734U 22016W   23017.44033746  .00019100  00000-0  12161-2 0  9999,2 51734  53.2153  69.3343 0001634  57.1388 302.9761 15.08803655 50368,6917.991,95.44,540.987,538.726,0.0
51734.0,STARLINK-3450,PAYLOAD,2023-01-18 08:49:29,15.08874822,0.0001824,53.2151,65.171,61.3216,298.7959,0.0027199,0.00043307,0.0,0 STARLINK-3450,1 51734U 22016W   23018.36770003  .00043307  00000-0  27199-2 0  9998,2 51734  53.2151  65.1710 0001824  61.3216 298.7959 15.08874822 51610,6917.774,95.435,540.901,538.377,0.0
51734.0,STARLINK-3450,PAYLOAD,2023-01-18 10:24:52,15.08879951,0.0001841999999999,53.2151,64.8736,61.6491,298.4687,0.0027478999999999,0.00043765,0.0,0 STARLINK-3450,1 51734U 22016W   23018.43393853  .00043765  00000-0  27479-2 0  9999,2 51734  53.2151  64.8736 0001842  61.6491 298.4687 15.08879951 50513,6917.758000000001,95.435,540.898,538.349,0.0
51734.0,STARLINK-3450,PAYLOAD,2023-01-18 19:57:10,15.08873446,0.0001808,53.2153,63.0888,66.6631,293.4551,0.001365,0.00021523,0.0,0 STARLINK-3450,1 51734U 22016W   23018.83137320  .00021523  00000-0  13650-2 0  9992,2 51734  53.2153  63.0888 0001808  66.6631 293.4551 15.08873446 51684,6917.778,95.435,540.894,538.3919999999999,0.0
51734.0,STARLINK-3450,PAYLOAD,2023-01-19 03:54:06,15.0887294,0.0001935,53.2146,61.6028,70.2175,289.9025,0.0017359,0.00027472,0.0,0 STARLINK-3450,1 51734U 22016W   23019.16257116  .00027472  00000-0  17359-2 0  9994,2 51734  53.2146  61.6028 0001935  70.2175 289.9025 15.08872940 51731,6917.78,95.435,540.9830000000001,538.306,0.0
51734.0,STARLINK-3450,PAYLOAD,2023-01-19 11:51:01,15.08882773,0.0001665,53.2145,60.1155,68.3147,291.8023,0.0024695,0.0003928,0.0,0 STARLINK-3450,1 51734U 22016W   23019.49376403  .00039280  00000-0  24695-2 0  9992,2 51734  53.2145  60.1155 0001665  68.3147 291.8023 15.08882773 50679,6917.75,95.435,540.766,538.4630000000001,0.0
51734.0,STARLINK-3450,PAYLOAD,2023-01-19 19:47:56,15.08864638,0.0001516,53.2152,58.6292,78.6031,281.5132,0.00086048,0.00013442,0.0,0 STARLINK-3450,1 51734U 22016W   23019.82496302  .00013442  00000-0  86048-3 0  9993,2 51734  53.2152  58.6292 0001516  78.6031 281.5132 15.08864638 51838,6917.805,95.436,540.719,538.621,0.0
51734.0,STARLINK-3450,PAYLOAD,2023-01-20 02:09:29,15.08838671,0.000154,53.2151,57.4395,84.2763,275.8405,0.00024889,3.675e-05,0.0,0 STARLINK-3450,1 51734U 22016W   23020.08992645  .00003675  00000-0  24889-3 0  9996,2 51734  53.2151  57.4395 0001540  84.2763 275.8405 15.08838671 51871,6917.884,95.438,540.815,538.684,0.0
51734.0,STARLINK-3450,PAYLOAD,2023-01-20 11:41:48,15.08849653,0.0001618,53.2144,55.6549,83.1776,276.94,0.0022581,0.00035842,0.0,0 STARLINK-3450,1 51734U 22016W   23020.48736937  .00035842  00000-0  22581-2 0  9997,2 51734  53.2144  55.6549 0001618  83.1776 276.9400 15.08849653 50825,6917.851,95.437,540.835,538.597,0.0
51734.0,STARLINK-3450,PAYLOAD,2023-01-21 08:21:49,15.08856116,0.0002,53.2147,51.7875,98.3131,261.8088,0.0017898,0.00028324,0.0,0 STARLINK-3450,1 51734U 22016W   23021.34849259  .00028324  00000-0  17898-2 0  9997,2 51734  53.2147  51.7875 0002000  98.3131 261.8088 15.08856116 52061,6917.831,95.437,541.08,538.313,0.0
51734.0,STARLINK-3450,PAYLOAD,2023-01-22 05:01:50,15.08847967,0.0001651,53.2132,47.9228,106.2776,253.8398,0.0010082,0.00015797,0.0,0 STARLINK-3450,1 51734U 22016W   23022.20961264  .00015797  00000-0  10082-2 0  9992,2 51734  53.2132  47.9228 0001651 106.2776 253.8398 15.08847967 52192,6917.856,95.437,540.863,538.5790000000001,0.0
51734.0,STARLINK-3450,PAYLOAD,2023-01-23 01:41:51,15.088455499999998,0.0001485,53.2159,44.0563,89.7013,270.4149,0.00073799,0.00011478,0.0,0 STARLINK-3450,1 51734U 22016W   23023.07073614  .00011478  00000-0  73799-3 0  9998,2 51734  53.2159  44.0563 0001485  89.7013 270.4149 15.08845550 52325,6917.863,95.437,540.756,538.701,0.0
51734.0,STARLINK-3450,PAYLOAD,2023-01-23 06:28:01,15.08836378,0.0001576999999999,53.2148,43.1626,109.4958,250.6205,0.00056194,8.666e-05,0.0,0 STARLINK-3450,1 51734U 22016W   23023.26945661  .00008666  00000-0  56194-3 0  9994,2 51734  53.2148  43.1626 0001577 109.4958 250.6205 15.08836378 52357,6917.891,95.438,540.847,538.6659999999999,0.0
51734.0,STARLINK-3450,PAYLOAD,2023-01-24 06:18:48,15.08839618,0.0001595,53.2152,38.7073,114.1079,246.008,0.00020458,2.969e-05,0.0,0 STARLINK-3450,1 51734U 22016W   23024.26305927  .00002969  00000-0  20458-3 0  9994,2 51734  53.2152  38.7073 0001595 114.1079 246.0080 15.08839618 52502,6917.882,95.438,540.85,538.643,0.0
51734.0,STARLINK-3450,PAYLOAD,2023-01-25 07:44:58,15.08838592,0.0001563,53.2153,33.9491,115.706,244.4094,0.00017116,2.437e-05,0.0,0 STARLINK-3450,1 51734U 22016W   23025.32290346  .00002437  00000-0  17116-3 0  9997,2 51734  53.2153  33.9491 0001563 115.7060 244.4094 15.08838592 52660,6917.885,95.438,540.831,538.668,0.0
51734.0,STARLINK-3450,PAYLOAD,2023-01-25 17:17:17,15.08845243,0.0001266,53.2153,32.1619,92.2893,267.8244,0.00025299,3.741e-05,0.0,0 STARLINK-3450,1 51734U 22016W   23025.72034158  .00003741  00000-0  25299-3 0  9998,2 51734  53.2153  32.1619 0001266  92.2893 267.8244 15.08845243 51617,6917.8640000000005,95.437,540.605,538.854,0.0
51734.0,STARLINK-3450,PAYLOAD,2023-01-26 09:11:09,15.08838747,0.0001353,53.2159,29.1873,80.5219,279.5926,4.5236000000000005e-05,4.32e-06,0.0,0 STARLINK-3450,1 51734U 22016W   23026.38274554  .00000432  00000-0  45236-4 0  9995,2 51734  53.2159  29.1873 0001353  80.5219 279.5926 15.08838747 51719,6917.884,95.438,540.685,538.813,0.0
51734.0,STARLINK-3450,PAYLOAD,2023-01-27 09:01:54,15.08874616,0.0001039,53.2157,24.7268,98.9052,261.2058,-0.00041712,-6.926e-05,0.0,0 STARLINK-3450,1 51734U 22016W   23027.37632219 -.00006926  00000-0 -41712-3 0  9991,2 51734  53.2157  24.7268 0001039  98.9052 261.2058 15.08874616 52973,6917.775,95.435,540.3580000000001,538.9209999999999,0.0
51734.0,STARLINK-3450,PAYLOAD,2023-01-28 05:41:57,15.08835767,0.0001069,53.2165,20.8603,84.3998,275.7116,6.9495e-05,8.18e-06,0.0,0 STARLINK-3450,1 51734U 22016W   23028.23746852  .00000818  00000-0  69495-4 0  9997,2 51734  53.2165  20.8603 0001069  84.3998 275.7116 15.08835767 53108,6917.893,95.438,540.498,539.019,0.0
51734.0,STARLINK-3450,PAYLOAD,2023-01-28 08:52:43,15.08842656,0.0001405,53.2167,20.2652,89.1194,270.9959,0.00016411,2.325e-05,0.0,0 STARLINK-3450,1 51734U 22016W   23028.36994595  .00002325  00000-0  16411-3 0  9994,2 51734  53.2167  20.2652 0001405  89.1194 270.9959 15.08842656 52019,6917.872,95.437,540.709,538.765,0.0
51734.0,STARLINK-3450,PAYLOAD,2023-01-29 08:43:29,15.08856672,0.0001359,53.2161,15.8044,96.7446,263.3701,0.00036117,5.467e-05,0.0,0 STARLINK-3450,1 51734U 22016W   23029.36353808  .00005467  00000-0  36117-3 0  9996,2 51734  53.2161  15.8044 0001359  96.7446 263.3701 15.08856672 53273,6917.829,95.437,540.635,538.754,0.0
51734.0,STARLINK-3450,PAYLOAD,2023-01-30 08:34:17,15.08842435,0.00013,53.216,11.344,87.8044,272.3097,6.2695e-05,7.1e-06,0.0,0 STARLINK-3450,1 51734U 22016W   23030.35714336  .00000710  00000-0  62695-4 0  9991,2 51734  53.2160  11.3440 0001300  87.8044 272.3097 15.08842435 53421,6917.873,95.437,540.637,538.839,0.0
51734.0,STARLINK-3450,PAYLOAD,2023-01-30 22:52:45,15.08839368,0.0001335,53.2158,8.667,94.2981,265.8163,-3.5516e-05,-8.53e-06,0.0,0 STARLINK-3450,1 51734U 22016W   23030.95330478 -.00000853  00000-0 -35516-4 0  9990,2 51734  53.2158   8.6670 0001335  94.2981 265.8163 15.08839368 52401,6917.882,95.438,540.671,538.824,0.0
51734.0,STARLINK-3450,PAYLOAD,2023-01-31 06:49:40,15.08847886,0.0001326,53.2165,7.1828,87.6851,272.4292,0.00010979,1.46e-05,0.0,0 STARLINK-3450,1 51734U 22016W   23031.28450068  .00001460  00000-0  10979-3 0  9993,2 51734  53.2165   7.1828 0001326  87.6851 272.4292 15.08847886 52456,6917.856,95.437,540.639,538.804,0.0
51734.0,STARLINK-3450,PAYLOAD,2023-02-01 06:40:27,15.08854363,0.0001381,53.2165,2.7225,86.1757,273.9393,0.0003318,4.999e-05,0.0,0 STARLINK-3450,1 51734U 22016W   23032.27809776  .00004999  00000-0  33180-3 0  9996,2 51734  53.2165   2.7225 0001381  86.1757 273.9393 15.08854363 53714,6917.836,95.437,540.657,538.746,0.0
